NORAD_CAT_ID,OBJECT_NAME,OBJECT_TYPE,EPOCH,MEAN_MOTION,ECCENTRICITY,INCLINATION,RA_OF_ASC_NODE,ARG_OF_PERICENTER,MEAN_ANOMALY,BSTAR,MEAN_MOTION_DOT,MEAN_MOTION_DDOT,TLE_LINE0,TLE_LINE1,TLE_LINE2,SEMIMAJOR_AXIS,PERIOD,APOGEE,PERIGEE,DECAYED
52988.0,STARLINK-4291,PAYLOAD,2023-03-31 13:24:38,15.08862627,0.0001076,53.2141,236.0822,91.1461,268.9655,0.0024193,0.00038449,0.0,0 STARLINK-4291,1 52988U 22076C   23090.55878135  .00038449  00000-0  24193-2 0  9994,2 52988  53.2141 236.0822 0001076  91.1461 268.9655 15.08862627 41156,6917.811,95.436,540.421,538.932,0.0
52988.0,STARLINK-4291,PAYLOAD,2023-04-01 02:07:43,15.08858483,0.000151,53.2145,233.7044,103.7498,256.3662,0.0014304,0.00022562,0.0,0 STARLINK-4291,1 52988U 22076C   23091.08870072  .00022562  00000-0  14304-2 0  9997,2 52988  53.2145 233.7044 0001510 103.7498 256.3662 15.08858483 41236,6917.824,95.436,540.733,538.644,0.0
52988.0,STARLINK-4291,PAYLOAD,2023-04-01 13:15:26,15.08817921,0.0001305,53.2146,231.6227,116.897,243.2156,0.00093262,0.00014577,0.0,0 STARLINK-4291,1 52988U 22076C   23091.55238941  .00014577  00000-0  93262-3 0  9990,2 52988  53.2146 231.6227 0001305 116.8970 243.2156 15.08817921 41302,6917.948,95.439,540.716,538.91,0.0
52988.0,STARLINK-4291,PAYLOAD,2023-04-01 16:26:12,15.08822052,0.0001324,53.2148,231.0281,112.6097,247.5035,0.0014837,0.00023392,0.0,0 STARLINK-4291,1 52988U 22076C   23091.68487134  .00023392  00000-0  14837-2 0  9999,2 52988  53.2148 231.0281 0001324 112.6097 247.5035 15.08822052 40856,6917.935,95.439,540.716,538.884,0.0
52988.0,STARLINK-4291,PAYLOAD,2023-04-02 14:41:37,15.08846588,0.0001349,53.2154,226.8651,104.1913,255.9229,0.00089069,0.00013918,0.0,0 STARLINK-4291,1 52988U 22076C   23092.61223445  .00013918  00000-0  89069-3 0  9999,2 52988  53.2154 226.8651 0001349 104.1913 255.9229 15.08846588 41462,6917.86,95.437,540.658,538.792,0.0
52988.0,STARLINK-4291,PAYLOAD,2023-04-02 17:52:23,15.08853451,0.0001364,53.2157,226.2706,105.0865,255.0278,0.0010005,0.00015677,0.0,0 STARLINK-4291,1 52988U 22076C   23092.74471285  .00015677  00000-0  10005-2 0  9997,2 52988  53.2157 226.2706 0001364 105.0865 255.0278 15.08853451 41016,6917.839,95.437,540.648,538.761,0.0
52988.0,STARLINK-4291,PAYLOAD,2023-04-03 01:49:18,15.08846137,0.0001332,53.2143,224.7842,88.323,271.7914,0.00066019,0.00010236,0.0,0 STARLINK-4291,1 52988U 22076C   23093.07591431  .00010236  00000-0  66019-3 0  9993,2 52988  53.2143 224.7842 0001332  88.3230 271.7914 15.08846137 41531,6917.862,95.437,540.648,538.805,0.0
52988.0,STARLINK-4291,PAYLOAD,2023-04-03 09:46:14,15.08840328,9.97e-05,53.2153,223.2966,90.9965,269.1142,0.00016093,2.274e-05,0.0,0 STARLINK-4291,1 52988U 22076C   23093.40711356  .00002274  00000-0  16093-3 0  9990,2 52988  53.2153 223.2966 0000997  90.9965 269.1142 15.08840328 41588,6917.879,95.438,540.434,539.055,0.0
52988.0,STARLINK-4291,PAYLOAD,2023-04-04 08:01:38,15.08851111,0.000156,53.2157,219.1335,79.9844,280.1324,0.00066459,0.00010308,0.0,0 STARLINK-4291,1 52988U 22076C   23094.33447330  .00010308  00000-0  66459-3 0  9999,2 52988  53.2157 219.1335 0001560  79.9844 280.1324 15.08851111 41257,6917.846,95.437,540.791,538.632,0.0
52988.0,STARLINK-4291,PAYLOAD,2023-04-05 14:13:58,15.08837821,0.000137,53.2139,213.4806,94.0404,266.0745,0.00010722,1.419e-05,0.0,0 STARLINK-4291,1 52988U 22076C   23095.59303448  .00001419  00000-0  10722-3 0  9994,2 52988  53.2139 213.4806 0001370  94.0404 266.0745 15.08837821 41449,6917.887,95.438,540.7,538.804,0.0
52988.0,STARLINK-4291,PAYLOAD,2023-04-06 12:29:22,15.08843801,0.0001362,53.2148,209.3186,95.4046,264.7102,0.00021603,3.152e-05,0.0,0 STARLINK-4291,1 52988U 22076C   23096.52039549  .00003152  00000-0  21603-3 0  9992,2 52988  53.2148 209.3186 0001362  95.4046 264.7102 15.08843801 41584,6917.869,95.437,540.676,538.792,0.0
52988.0,STARLINK-4291,PAYLOAD,2023-04-07 12:20:09,15.08843115,0.0001368,53.2143,204.8582,98.0287,262.086,0.00020775,3.02e-05,0.0,0 STARLINK-4291,1 52988U 22076C   23097.51399543  .00003020  00000-0  20775-3 0  9998,2 52988  53.2143 204.8582 0001368  98.0287 262.0860 15.08843115 42201,6917.871,95.437,540.682,538.79,0.0
52988.0,STARLINK-4291,PAYLOAD,2023-04-08 05:49:24,15.0883186,0.0001392,53.2157,201.5898,99.8107,260.3042,0.00044262,6.762e-05,0.0,0 STARLINK-4291,1 52988U 22076C   23098.24264047  .00006762  00000-0  44262-3 0  9992,2 52988  53.2157 201.5898 0001392  99.8107 260.3042 15.08831860 42316,6917.905,95.438,540.733,538.807,0.0
52988.0,STARLINK-4291,PAYLOAD,2023-04-08 12:10:56,15.08840793,0.0001332,53.2146,200.3977,103.7582,256.3558,2.6781e-05,1.38e-06,0.0,0 STARLINK-4291,1 52988U 22076C   23098.50759458  .00000138  00000-0  26781-4 0  9994,2 52988  53.2146 200.3977 0001332 103.7582 256.3558 15.08840793 41888,6917.878,95.438,540.664,538.822,0.0
52988.0,STARLINK-4291,PAYLOAD,2023-04-08 16:57:05,15.08845212,0.0001549,53.2158,199.5051,115.3759,244.7393,6.9762e-05,8.23e-06,0.0,0 STARLINK-4291,1 52988U 22076C   23098.70631183  .00000823  00000-0  69762-4 0  9997,2 52988  53.2158 199.5051 0001549 115.3759 244.7393 15.08845212 42383,6917.864,95.437,540.801,538.658,0.0
52988.0,STARLINK-4291,PAYLOAD,2023-04-09 07:15:34,15.08833057,0.0001149,53.2163,196.8299,108.5647,251.547,1.5812e-05,-3.6e-07,0.0,0 STARLINK-4291,1 52988U 22076C   23099.30248170 -.00000036  00000-0  15812-4 0  9998,2 52988  53.2163 196.8299 0001149 108.5647 251.5470 15.08833057 42475,6917.902,95.438,540.561,538.972,0.0
52988.0,STARLINK-4291,PAYLOAD,2023-04-09 10:26:20,15.0883751,0.0001189,53.2156,196.2348,109.7117,250.4003,4.8664e-05,4.87e-06,0.0,0 STARLINK-4291,1 52988U 22076C   23099.43495800  .00000487  00000-0  48664-4 0  9996,2 52988  53.2156 196.2348 0001189 109.7117 250.4003 15.08837510 42024,6917.888,95.438,540.576,538.93,0.0
52988.0,STARLINK-4291,PAYLOAD,2023-04-09 13:37:06,15.08840866,0.0001281,53.2156,195.6399,111.7788,248.3341,7.7692e-05,9.49e-06,0.0,0 STARLINK-4291,1 52988U 22076C   23099.56743527  .00000949  00000-0  77692-4 0  9998,2 52988  53.2156 195.6399 0001281 111.7788 248.3341 15.08840866 42516,6917.878,95.437,540.629,538.857,0.0
52988.0,STARLINK-4291,PAYLOAD,2023-04-10 07:06:21,15.0883986,0.000127,53.2155,192.3683,112.5417,247.5709,7.7637e-05,9.48e-06,0.0,0 STARLINK-4291,1 52988U 22076C   23100.29607725  .00000948  00000-0  77637-4 0  9998,2 52988  53.2155 192.3683 0001270 112.5417 247.5709 15.08839860 42152,6917.881,95.438,540.624,538.867,0.0
52988.0,STARLINK-4291,PAYLOAD,2023-04-10 15:03:16,15.08848797,0.0001387,53.2165,190.881,118.6974,241.4157,0.00011187,1.493e-05,0.0,0 STARLINK-4291,1 52988U 22076C   23100.62726973  .00001493  00000-0  11187-3 0  9995,2 52988  53.2165 190.8810 0001387 118.6974 241.4157 15.08848797 42678,6917.854,95.437,540.678,538.759,0.0
52988.0,STARLINK-4291,PAYLOAD,2023-04-11 11:43:18,15.08820038,0.0001367,53.2166,187.0165,105.8575,254.2568,-0.00011664,-2.143e-05,0.0,0 STARLINK-4291,1 52988U 22076C   23101.48841384 -.00002143  00000-0 -11664-3 0  9999,2 52988  53.2166 187.0165 0001367 105.8575 254.2568 15.08820038 42804,6917.941,95.439,540.752,538.861,0.0
52988.0,STARLINK-4291,PAYLOAD,2023-04-11 14:54:05,15.08822197,0.0001455,53.2163,186.421,108.7724,251.3427,-0.0001055,-1.966e-05,0.0,0 STARLINK-4291,1 52988U 22076C   23101.62089310 -.00001966  00000-0 -10550-3 0  9993,2 52988  53.2163 186.4210 0001455 108.7724 251.3427 15.08822197 42351,6917.935,95.439,540.806,538.793,0.0
52988.0,STARLINK-4291,PAYLOAD,2023-04-12 05:12:32,15.08832633,8.13e-05,53.2153,183.7407,106.3433,253.7649,-3.4576e-05,-8.38e-06,0.0,0 STARLINK-4291,1 52988U 22076C   23102.21704769 -.00000838  00000-0 -34576-4 0  9993,2 52988  53.2153 183.7407 0000813 106.3433 253.7649 15.08832633 42916,6917.903,95.438,540.33,539.205,0.0
52988.0,STARLINK-4291,PAYLOAD,2023-04-12 11:34:05,15.0883879,0.0001529,53.2145,182.5614,64.007,296.108,3.4832e-05,2.66e-06,0.0,0 STARLINK-4291,1 52988U 22076C   23102.48200317  .00000266  00000-0  34832-4 0  9990,2 52988  53.2145 182.5614 0001529  64.0070 296.1080 15.08838790 42950,6917.884,95.438,540.807,538.691,0.0
52988.0,STARLINK-4291,PAYLOAD,2023-04-12 17:55:36,15.08852306,0.0001206,53.214,181.3648,100.0316,260.0812,0.00023562,3.465e-05,0.0,0 STARLINK-4291,1 52988U 22076C   23102.74695271  .00003465  00000-0  23562-3 0  9997,2 52988  53.2140 181.3648 0001206 100.0316 260.0812 15.08852306 42991,6917.843,95.437,540.542,538.873,0.0
52988.0,STARLINK-4291,PAYLOAD,2023-04-12 22:41:46,15.08839068,7.82e-05,53.2152,180.473,98.3706,261.7375,-7.815e-05,-1.531e-05,0.0,0 STARLINK-4291,1 52988U 22076C   23102.94567780 -.00001531  00000-0 -78150-4 0  9990,2 52988  53.2152 180.4730 0000782  98.3706 261.7375 15.08839068 42550,6917.883,95.438,540.289,539.207,0.0
52988.0,STARLINK-4291,PAYLOAD,2023-04-14 09:40:15,15.08846181,0.000133,53.2141,173.9327,67.0638,293.0494,0.00012671,1.73e-05,0.0,0 STARLINK-4291,1 52988U 22076C   23104.40295906  .00001730  00000-0  12671-3 0  9995,2 52988  53.2141 173.9327 0001330  67.0638 293.0494 15.08846181 43245,6917.861,95.437,540.647,538.806,0.0
52988.0,STARLINK-4291,PAYLOAD,2023-04-14 11:15:38,15.08848504,0.0001319,53.214,173.635,71.9873,288.1263,0.00033229,5.006e-05,0.0,0 STARLINK-4291,1 52988U 22076C   23104.46919858  .00005006  00000-0  33229-3 0  9992,2 52988  53.2140 173.6350 0001319  71.9873 288.1263 15.08848504 42787,6917.854,95.437,540.632,538.807,0.0
52988.0,STARLINK-4291,PAYLOAD,2023-04-15 11:06:25,15.08850141,0.0001411,53.2142,169.1741,76.2645,283.8504,0.00015849,2.236e-05,0.0,0 STARLINK-4291,1 52988U 22076C   23105.46279574  .00002236  00000-0  15849-3 0  9997,2 52988  53.2142 169.1741 0001411  76.2645 283.8504 15.08850141 43401,6917.849,95.437,540.691,538.738,0.0
52988.0,STARLINK-4291,PAYLOAD,2023-04-15 20:38:44,15.08842998,0.0001337,53.2146,167.3904,90.7579,269.3566,5.2957e-05,5.55e-06,0.0,0 STARLINK-4291,1 52988U 22076C   23105.86023687  .00000555  00000-0  52957-4 0  9997,2 52988  53.2146 167.3904 0001337  90.7579 269.3566 15.08842998 42991,6917.871,95.437,540.661,538.811,0.0
